{"epoch":1784710044,"count":18256,"objects":[{"id":"45434","name":"ONEWEB-0018","type":"PAYLOAD","l1":"1 45434U 20020L   26202.47502059  .00000503  00000-0  13843-2 0  9997","l2":"2 45434  87.8893  14.2388 0001768 105.1600 254.9724 13.11416105307125"},{"id":"45435","name":"ONEWEB-0083","type":"PAYLOAD","l1":"1 45435U 20020M   26202.00735003  .00000518  00000-0  14262-2 0  9996","l2":"2 45435  87.8897  14.3275 0001903  93.4944 266.6401 13.11416955307100"},{"id":"45436","name":"ONEWEB-0095","type":"PAYLOAD","l1":"1 45436U 20020N   26202.45665183  .00000373  00000-0  10170-2 0  9990","l2":"2 45436  87.8899  14.2467 0002159  73.6624 286.4741 13.11417811307169"},{"id":"45437","name":"ONEWEB-0092","type":"PAYLOAD","l1":"1 45437U 20020P   26202.48718223  .00000256  00000-0  68527-3 0  9998","l2":"2 45437  87.8895  14.2315 0001741  98.3129 261.8196 13.11413800307286"},{"id":"45438","name":"ONEWEB-0085","type":"PAYLOAD","l1":"1 45438U 20020Q   26202.46485200  .00000553  00000-0  15245-2 0  9991","l2":"2 45438  87.8893  14.2410 0001843  90.9107 269.2232 13.11417910307164"},{"id":"45439","name":"ONEWEB-0096","type":"PAYLOAD","l1":"1 45439U 20020R   26202.46668708  .00000609  00000-0  16820-2 0  9990","l2":"2 45439  87.8897  14.2385 0001894  88.0377 272.0968 13.11416720307158"},{"id":"45440","name":"ONEWEB-0037","type":"PAYLOAD","l1":"1 45440U 20020S   26202.41636320  .00014441  00000-0  40556-1 0  9993","l2":"2 45440  87.8907  14.2219 0001904  87.0266 273.1080 13.11571254307180"},{"id":"45441","name":"ONEWEB-0042","type":"PAYLOAD","l1":"1 45441U 20020T   26201.99859666  .00000444  00000-0  12164-2 0  9999","l2":"2 45441  87.8896  14.3281 0001731  91.2229 268.9097 13.11418310307095"},{"id":"45442","name":"ONEWEB-0098","type":"PAYLOAD","l1":"1 45442U 20020U   26202.45227389  .00000217  00000-0  57529-3 0  9996","l2":"2 45442  87.8897  14.2466 0001909  92.8138 267.3208 13.11417507307133"},{"id":"45443","name":"ONEWEB-0055","type":"PAYLOAD","l1":"1 45443U 20020V   26202.43093472 -.00000442  00000-0 -12840-2 0  9997","l2":"2 45443  87.8897  14.2500 0001907  92.6553 267.4793 13.11417138307107"},{"id":"45444","name":"ONEWEB-0093","type":"PAYLOAD","l1":"1 45444U 20020W   26202.42036847 -.00000400  00000-0 -11729-2 0  9999","l2":"2 45444  87.8896  14.2495 0001526  93.5315 266.5987 13.10891554307161"},{"id":"45445","name":"ONEWEB-0029","type":"PAYLOAD","l1":"1 45445U 20020X   26202.43800344 -.00000333  00000-0 -97596-3 0  9994","l2":"2 45445  87.8889  14.2482 0001618  95.7007 264.4305 13.11416984307144"},{"id":"45446","name":"ONEWEB-0068","type":"PAYLOAD","l1":"1 45446U 20020Y   26202.41058586 -.00000145  00000-0 -44418-3 0  9992","l2":"2 45446  87.8894  14.2509 0001673  95.0460 265.0859 13.11414952307085"},{"id":"45447","name":"ONEWEB-0046","type":"PAYLOAD","l1":"1 45447U 20020Z   26202.47854378  .00000391  00000-0  10661-2 0  9995","l2":"2 45447  87.8889  14.2408 0001588  88.4912 271.6398 13.11416358307107"},{"id":"45448","name":"ONEWEB-0063","type":"PAYLOAD","l1":"1 45448U 20020AA  26202.43120902 -.00000471  00000-0 -13639-2 0  9990","l2":"2 45448  87.8899  14.2522 0001805  82.7060 277.4273 13.11417015307184"},{"id":"45449","name":"ONEWEB-0019","type":"PAYLOAD","l1":"1 45449U 20020AB  26202.46994490  .00000603  00000-0  16653-2 0  9999","l2":"2 45449  87.8893  14.2289 0002000  95.4390 264.6966 13.11416515307039"}]}