{"fetched_at":"2026-07-22T07:09:22.096Z","source":"https://celestrak.org/NORAD/elements/gp.php?GROUP=oneweb&FORMAT=JSON","constellation":"oneweb","records":[{"OBJECT_NAME":"ONEWEB-0018","OBJECT_ID":"2020-020L","EPOCH":"2026-07-21T11:24:01.778976","CLASSIFICATION_TYPE":"U","MEAN_MOTION":13.11416105,"ECCENTRICITY":0.00017684,"INCLINATION":87.8893,"RA_OF_ASC_NODE":14.2388,"ARG_OF_PERICENTER":105.16,"MEAN_ANOMALY":254.9724,"EPHEMERIS_TYPE":0,"NORAD_CAT_ID":45434,"ELEMENT_SET_NO":999,"REV_AT_EPOCH":30712,"BSTAR":0.0013843387,"MEAN_MOTION_DOT":0.00000503,"MEAN_MOTION_DDOT":0},{"OBJECT_NAME":"ONEWEB-0083","OBJECT_ID":"2020-020M","EPOCH":"2026-07-21T00:10:35.042592","CLASSIFICATION_TYPE":"U","MEAN_MOTION":13.11416955,"ECCENTRICITY":0.00019029,"INCLINATION":87.8897,"RA_OF_ASC_NODE":14.3275,"ARG_OF_PERICENTER":93.4944,"MEAN_ANOMALY":266.6401,"EPHEMERIS_TYPE":0,"NORAD_CAT_ID":45435,"ELEMENT_SET_NO":999,"REV_AT_EPOCH":30710,"BSTAR":0.0014261853,"MEAN_MOTION_DOT":0.00000518,"MEAN_MOTION_DDOT":0},{"OBJECT_NAME":"ONEWEB-0095","OBJECT_ID":"2020-020N","EPOCH":"2026-07-21T10:57:34.718112","CLASSIFICATION_TYPE":"U","MEAN_MOTION":13.11417811,"ECCENTRICITY":0.00021591,"INCLINATION":87.8899,"RA_OF_ASC_NODE":14.2467,"ARG_OF_PERICENTER":73.6624,"MEAN_ANOMALY":286.4741,"EPHEMERIS_TYPE":0,"NORAD_CAT_ID":45436,"ELEMENT_SET_NO":999,"REV_AT_EPOCH":30716,"BSTAR":0.001016982,"MEAN_MOTION_DOT":0.00000373,"MEAN_MOTION_DDOT":0},{"OBJECT_NAME":"ONEWEB-0092","OBJECT_ID":"2020-020P","EPOCH":"2026-07-21T11:41:32.544672","CLASSIFICATION_TYPE":"U","MEAN_MOTION":13.114138,"ECCENTRICITY":0.00017412,"INCLINATION":87.8895,"RA_OF_ASC_NODE":14.2315,"ARG_OF_PERICENTER":98.3129,"MEAN_ANOMALY":261.8196,"EPHEMERIS_TYPE":0,"NORAD_CAT_ID":45437,"ELEMENT_SET_NO":999,"REV_AT_EPOCH":30728,"BSTAR":0.00068526947,"MEAN_MOTION_DOT":0.00000256,"MEAN_MOTION_DDOT":0},{"OBJECT_NAME":"ONEWEB-0085","OBJECT_ID":"2020-020Q","EPOCH":"2026-07-21T11:09:23.212800","CLASSIFICATION_TYPE":"U","MEAN_MOTION":13.1141791,"ECCENTRICITY":0.00018433,"INCLINATION":87.8893,"RA_OF_ASC_NODE":14.241,"ARG_OF_PERICENTER":90.9107,"MEAN_ANOMALY":269.2232,"EPHEMERIS_TYPE":0,"NORAD_CAT_ID":45438,"ELEMENT_SET_NO":999,"REV_AT_EPOCH":30716,"BSTAR":0.0015245079,"MEAN_MOTION_DOT":0.00000553,"MEAN_MOTION_DDOT":0},{"OBJECT_NAME":"ONEWEB-0096","OBJECT_ID":"2020-020R","EPOCH":"2026-07-21T11:12:01.763712","CLASSIFICATION_TYPE":"U","MEAN_MOTION":13.1141672,"ECCENTRICITY":0.0001894,"INCLINATION":87.8897,"RA_OF_ASC_NODE":14.2385,"ARG_OF_PERICENTER":88.0377,"MEAN_ANOMALY":272.0968,"EPHEMERIS_TYPE":0,"NORAD_CAT_ID":45439,"ELEMENT_SET_NO":999,"REV_AT_EPOCH":30715,"BSTAR":0.0016820405,"MEAN_MOTION_DOT":0.00000609,"MEAN_MOTION_DDOT":0},{"OBJECT_NAME":"ONEWEB-0037","OBJECT_ID":"2020-020S","EPOCH":"2026-07-21T09:59:33.780480","CLASSIFICATION_TYPE":"U","MEAN_MOTION":13.11571254,"ECCENTRICITY":0.00019045,"INCLINATION":87.8907,"RA_OF_ASC_NODE":14.2219,"ARG_OF_PERICENTER":87.0266,"MEAN_ANOMALY":273.108,"EPHEMERIS_TYPE":0,"NORAD_CAT_ID":45440,"ELEMENT_SET_NO":999,"REV_AT_EPOCH":30718,"BSTAR":0.040556359,"MEAN_MOTION_DOT":0.00014441,"MEAN_MOTION_DDOT":0},{"OBJECT_NAME":"ONEWEB-0042","OBJECT_ID":"2020-020T","EPOCH":"2026-07-20T23:57:58.751424","CLASSIFICATION_TYPE":"U","MEAN_MOTION":13.1141831,"ECCENTRICITY":0.00017311,"INCLINATION":87.8896,"RA_OF_ASC_NODE":14.3281,"ARG_OF_PERICENTER":91.2229,"MEAN_ANOMALY":268.9097,"EPHEMERIS_TYPE":0,"NORAD_CAT_ID":45441,"ELEMENT_SET_NO":999,"REV_AT_EPOCH":30709,"BSTAR":0.0012164058,"MEAN_MOTION_DOT":0.00000444,"MEAN_MOTION_DDOT":0},{"OBJECT_NAME":"ONEWEB-0098","OBJECT_ID":"2020-020U","EPOCH":"2026-07-21T10:51:16.464096","CLASSIFICATION_TYPE":"U","MEAN_MOTION":13.11417507,"ECCENTRICITY":0.00019088,"INCLINATION":87.8897,"RA_OF_ASC_NODE":14.2466,"ARG_OF_PERICENTER":92.8138,"MEAN_ANOMALY":267.3208,"EPHEMERIS_TYPE":0,"NORAD_CAT_ID":45442,"ELEMENT_SET_NO":999,"REV_AT_EPOCH":30713,"BSTAR":0.00057528627,"MEAN_MOTION_DOT":0.00000217,"MEAN_MOTION_DDOT":0},{"OBJECT_NAME":"ONEWEB-0055","OBJECT_ID":"2020-020V","EPOCH":"2026-07-21T10:20:32.759808","CLASSIFICATION_TYPE":"U","MEAN_MOTION":13.11417138,"ECCENTRICITY":0.00019067,"INCLINATION":87.8897,"RA_OF_ASC_NODE":14.25,"ARG_OF_PERICENTER":92.6553,"MEAN_ANOMALY":267.4793,"EPHEMERIS_TYPE":0,"NORAD_CAT_ID":45443,"ELEMENT_SET_NO":999,"REV_AT_EPOCH":30710,"BSTAR":-0.0012839752,"MEAN_MOTION_DOT":-0.00000442,"MEAN_MOTION_DDOT":0},{"OBJECT_NAME":"ONEWEB-0093","OBJECT_ID":"2020-020W","EPOCH":"2026-07-21T10:05:19.835808","CLASSIFICATION_TYPE":"U","MEAN_MOTION":13.10891554,"ECCENTRICITY":0.00015255,"INCLINATION":87.8896,"RA_OF_ASC_NODE":14.2495,"ARG_OF_PERICENTER":93.5315,"MEAN_ANOMALY":266.5987,"EPHEMERIS_TYPE":0,"NORAD_CAT_ID":45444,"ELEMENT_SET_NO":999,"REV_AT_EPOCH":30716,"BSTAR":-0.001172922,"MEAN_MOTION_DOT":-0.000004,"MEAN_MOTION_DDOT":0},{"OBJECT_NAME":"ONEWEB-0029","OBJECT_ID":"2020-020X","EPOCH":"2026-07-21T10:30:43.497216","CLASSIFICATION_TYPE":"U","MEAN_MOTION":13.11416984,"ECCENTRICITY":0.00016179,"INCLINATION":87.8889,"RA_OF_ASC_NODE":14.2482,"ARG_OF_PERICENTER":95.7007,"MEAN_ANOMALY":264.4305,"EPHEMERIS_TYPE":0,"NORAD_CAT_ID":45445,"ELEMENT_SET_NO":999,"REV_AT_EPOCH":30714,"BSTAR":-0.00097596019,"MEAN_MOTION_DOT":-0.00000333,"MEAN_MOTION_DDOT":0},{"OBJECT_NAME":"ONEWEB-0068","OBJECT_ID":"2020-020Y","EPOCH":"2026-07-21T09:51:14.618304","CLASSIFICATION_TYPE":"U","MEAN_MOTION":13.11414952,"ECCENTRICITY":0.00016731,"INCLINATION":87.8894,"RA_OF_ASC_NODE":14.2509,"ARG_OF_PERICENTER":95.046,"MEAN_ANOMALY":265.0859,"EPHEMERIS_TYPE":0,"NORAD_CAT_ID":45446,"ELEMENT_SET_NO":999,"REV_AT_EPOCH":30708,"BSTAR":-0.00044418099,"MEAN_MOTION_DOT":-0.00000145,"MEAN_MOTION_DDOT":0},{"OBJECT_NAME":"ONEWEB-0046","OBJECT_ID":"2020-020Z","EPOCH":"2026-07-21T11:29:06.182592","CLASSIFICATION_TYPE":"U","MEAN_MOTION":13.11416358,"ECCENTRICITY":0.00015879,"INCLINATION":87.8889,"RA_OF_ASC_NODE":14.2408,"ARG_OF_PERICENTER":88.4912,"MEAN_ANOMALY":271.6398,"EPHEMERIS_TYPE":0,"NORAD_CAT_ID":45447,"ELEMENT_SET_NO":999,"REV_AT_EPOCH":30710,"BSTAR":0.0010660599,"MEAN_MOTION_DOT":0.00000391,"MEAN_MOTION_DDOT":0},{"OBJECT_NAME":"ONEWEB-0063","OBJECT_ID":"2020-020AA","EPOCH":"2026-07-21T10:20:56.459328","CLASSIFICATION_TYPE":"U","MEAN_MOTION":13.11417015,"ECCENTRICITY":0.00018055,"INCLINATION":87.8899,"RA_OF_ASC_NODE":14.2522,"ARG_OF_PERICENTER":82.706,"MEAN_ANOMALY":277.4273,"EPHEMERIS_TYPE":0,"NORAD_CAT_ID":45448,"ELEMENT_SET_NO":999,"REV_AT_EPOCH":30718,"BSTAR":-0.0013638584,"MEAN_MOTION_DOT":-0.00000471,"MEAN_MOTION_DDOT":0},{"OBJECT_NAME":"ONEWEB-0019","OBJECT_ID":"2020-020AB","EPOCH":"2026-07-21T11:16:43.239360","CLASSIFICATION_TYPE":"U","MEAN_MOTION":13.11416515,"ECCENTRICITY":0.00019999,"INCLINATION":87.8893,"RA_OF_ASC_NODE":14.2289,"ARG_OF_PERICENTER":95.439,"MEAN_ANOMALY":264.6966,"EPHEMERIS_TYPE":0,"NORAD_CAT_ID":45449,"ELEMENT_SET_NO":999,"REV_AT_EPOCH":30703,"BSTAR":0.0016653056,"MEAN_MOTION_DOT":0.00000603,"MEAN_MOTION_DDOT":0}]}
